NORAD_CAT_ID,OBJECT_NAME,OBJECT_TYPE,EPOCH,MEAN_MOTION,ECCENTRICITY,INCLINATION,RA_OF_ASC_NODE,ARG_OF_PERICENTER,MEAN_ANOMALY,BSTAR,MEAN_MOTION_DOT,MEAN_MOTION_DDOT,TLE_LINE0,TLE_LINE1,TLE_LINE2,SEMIMAJOR_AXIS,PERIOD,APOGEE,PERIGEE,DECAYED
51896.0,STARLINK-3593,PAYLOAD,2024-01-15 00:13:02,15.08853591,0.0001431,53.2157,281.9109,95.8063,264.3093,0.00023461,3.449e-05,0.0,0 STARLINK-3593,1 51896U 22022AW  24015.00905948  .00003449  00000-0  23461-3 0  9993,2 51896  53.2157 281.9109 0001431  95.8063 264.3093 15.08853591104832,6917.839,95.437,540.694,538.714,0.0
51896.0,STARLINK-3593,PAYLOAD,2024-01-15 20:53:03,15.08838969,0.0001718,53.2159,278.0426,114.9798,245.1373,5.9808e-05,6.64e-06,0.0,0 STARLINK-3593,1 51896U 22022AW  24015.87018497  .00000664  00000-0  59808-4 0  9993,2 51896  53.2159 278.0426 0001718 114.9798 245.1373 15.08838969104963,6917.884,95.438,540.937,538.56,0.0
51896.0,STARLINK-3593,PAYLOAD,2024-01-16 03:14:36,15.08839217,0.0001669,53.2165,276.8528,113.7694,246.3473,-3.7183e-05,-8.8e-06,0.0,0 STARLINK-3593,1 51896U 22022AW  24016.13514557 -.00000880  00000-0 -37183-4 0  9995,2 51896  53.2165 276.8528 0001669 113.7694 246.3473 15.08839217105003,6917.883,95.438,540.902,538.593,0.0
51896.0,STARLINK-3593,PAYLOAD,2024-01-16 17:33:05,15.088257,0.0001589,53.2162,274.179,108.7742,251.3422,0.00014795,2.067e-05,0.0,0 STARLINK-3593,1 51896U 22022AW  24016.73131141  .00002067  00000-0  14795-3 0  9995,2 51896  53.2162 274.1790 0001589 108.7742 251.3422 15.08825700105092,6917.924,95.438,540.888,538.69,0.0
51896.0,STARLINK-3593,PAYLOAD,2024-01-16 22:19:14,15.088465,0.0001478,53.216,273.2873,110.8772,249.2379,-4.6826e-05,-1.033e-05,0.0,0 STARLINK-3593,1 51896U 22022AW  24016.93002515 -.00001033  00000-0 -46826-4 0  9994,2 51896  53.2160 273.2873 0001478 110.8772 249.2379 15.08846500105128,6917.861,95.437,540.748,538.703,0.0
51896.0,STARLINK-3593,PAYLOAD,2024-01-16 23:54:37,15.08848427,0.0001514,53.2165,272.9894,110.7621,249.3533,-2.0572e-05,-6.15e-06,0.0,0 STARLINK-3593,1 51896U 22022AW  24016.99626168 -.00000615  00000-0 -20572-4 0  9991,2 51896  53.2165 272.9894 0001514 110.7621 249.3533 15.08848427105139,6917.855,95.437,540.767,538.672,0.0
51896.0,STARLINK-3593,PAYLOAD,2024-01-17 22:10:02,15.08830558,0.0001647,53.2176,268.828,110.1993,249.9177,4.4593e-05,4.22e-06,0.0,0 STARLINK-3593,1 51896U 22022AW  24017.92363619  .00000422  00000-0  44593-4 0  9997,2 51896  53.2176 268.8280 0001647 110.1993 249.9177 15.08830558105278,6917.909,95.438,540.914,538.635,0.0
51896.0,STARLINK-3593,PAYLOAD,2024-01-18 02:56:11,15.08832597,0.0001613,53.2173,267.9353,109.7094,250.4072,4.1187e-05,3.67e-06,0.0,0 STARLINK-3593,1 51896U 22022AW  24018.12235575  .00000367  00000-0  41187-4 0  9993,2 51896  53.2173 267.9353 0001613 109.7094 250.4072 15.08832597105305,6917.903,95.438,540.884,538.652,0.0
51896.0,STARLINK-3593,PAYLOAD,2024-01-18 20:25:25,15.08842172,0.0001631,53.2179,264.6646,112.6574,247.459,3.6715e-05,2.96e-06,0.0,0 STARLINK-3593,1 51896U 22022AW  24018.85099241  .00000296  00000-0  36715-4 0  9993,2 51896  53.2179 264.6646 0001631 112.6574 247.4590 15.08842172105419,6917.874,95.437,540.867,538.61,0.0
51896.0,STARLINK-3593,PAYLOAD,2024-01-18 22:00:48,15.08842852,0.0001442,53.2174,264.3676,109.1367,250.9781,4.2571e-05,3.9e-06,0.0,0 STARLINK-3593,1 51896U 22022AW  24018.91723176  .00000390  00000-0  42571-4 0  9993,2 51896  53.2174 264.3676 0001442 109.1367 250.9781 15.08842852105422,6917.872,95.437,540.734,538.739,0.0
51896.0,STARLINK-3593,PAYLOAD,2024-01-19 01:11:34,15.08847774,0.0001705,53.2174,263.7716,107.681,252.4369,0.00010432,1.373e-05,0.0,0 STARLINK-3593,1 51896U 22022AW  24019.04970749  .00001373  00000-0  10432-3 0  9990,2 51896  53.2174 263.7716 0001705 107.6810 252.4369 15.08847774105447,6917.857,95.437,540.901,538.542,0.0
51896.0,STARLINK-3593,PAYLOAD,2024-01-19 20:16:12,15.08838621,0.0001555,53.2179,260.206,97.669,262.4478,9.2773e-05,1.189e-05,0.0,0 STARLINK-3593,1 51896U 22022AW  24019.84459473  .00001189  00000-0  92773-4 0  9998,2 51896  53.2179 260.2060 0001555  97.6690 262.4478 15.08838621105569,6917.885,95.438,540.825,538.674,0.0
51896.0,STARLINK-3593,PAYLOAD,2024-01-19 21:51:35,15.08841649,0.0001638,53.217,259.9074,103.4901,256.6274,0.00010754,1.424e-05,0.0,0 STARLINK-3593,1 51896U 22022AW  24019.91083178  .00001424  00000-0  10754-3 0  9991,2 51896  53.2170 259.9074 0001638 103.4901 256.6274 15.08841649105577,6917.875,95.437,540.873,538.607,0.0
51896.0,STARLINK-3593,PAYLOAD,2024-01-20 01:02:21,15.08845949,0.0001489,53.2168,259.3118,94.0469,266.0694,0.00014033,1.946e-05,0.0,0 STARLINK-3593,1 51896U 22022AW  24020.04330835  .00001946  00000-0  14033-3 0  9995,2 51896  53.2168 259.3118 0001489  94.0469 266.0694 15.08845949105595,6917.862,95.437,540.757,538.697,0.0
51896.0,STARLINK-3593,PAYLOAD,2024-01-20 20:07:00,15.0884079,0.0001356,53.2176,255.7326,112.082,248.0316,-4.549e-05,-1.012e-05,0.0,0 STARLINK-3593,1 51896U 22022AW  24020.83819545 -.00001012  00000-0 -45490-4 0  9990,2 51896  53.2176 255.7326 0001356 112.0820 248.0316 15.08840790105714,6917.878,95.438,540.681,538.805,0.0
51896.0,STARLINK-3593,PAYLOAD,2024-01-21 00:53:09,15.08842518,0.0001488,53.2173,254.8452,104.1869,255.9288,-1.4747e-05,-5.23e-06,0.0,0 STARLINK-3593,1 51896U 22022AW  24021.03691497 -.00000523  00000-0 -14747-4 0  9994,2 51896  53.2173 254.8452 0001488 104.1869 255.9288 15.08842518105740,6917.873,95.437,540.767,538.708,0.0
51896.0,STARLINK-3593,PAYLOAD,2024-01-21 21:33:10,15.08844523,0.0001647,53.2165,250.9829,82.0736,278.0443,2.2412e-05,6.9e-07,0.0,0 STARLINK-3593,1 51896U 22022AW  24021.89803482  .00000069  00000-0  22412-4 0  9998,2 51896  53.2165 250.9829 0001647  82.0736 278.0443 15.08844523105871,6917.867,95.437,540.871,538.592,0.0
51896.0,STARLINK-3593,PAYLOAD,2024-01-22 00:43:56,15.08846064,0.0001689,53.2168,250.3868,80.3618,279.7565,3.7915e-05,3.15e-06,0.0,0 STARLINK-3593,1 51896U 22022AW  24022.03051336  .00000315  00000-0  37915-4 0  9996,2 51896  53.2168 250.3868 0001689  80.3618 279.7565 15.08846064105894,6917.862,95.437,540.895,538.558,0.0
51896.0,STARLINK-3593,PAYLOAD,2024-01-22 21:23:57,15.08842375,0.0001544,53.2164,246.5202,94.2303,265.8866,9.7297e-05,1.261e-05,0.0,0 STARLINK-3593,1 51896U 22022AW  24022.89163339  .00001261  00000-0  97297-4 0  9997,2 51896  53.2164 246.5202 0001544  94.2303 265.8866 15.08842375106021,6917.873,95.437,540.806,538.67,0.0
51896.0,STARLINK-3593,PAYLOAD,2024-01-23 19:39:20,15.08843155,0.0001585,53.2167,242.3569,99.4736,260.6435,6.3623e-05,7.25e-06,0.0,0 STARLINK-3593,1 51896U 22022AW  24023.81899288  .00000725  00000-0  63623-4 0  9999,2 51896  53.2167 242.3569 0001585  99.4736 260.6435 15.08843155106163,6917.871,95.437,540.832,538.639,0.0
51896.0,STARLINK-3593,PAYLOAD,2024-01-24 19:30:08,15.08839171,0.0001349,53.2171,237.9061,92.3148,267.7999,2.6941e-05,1.41e-06,0.0,0 STARLINK-3593,1 51896U 22022AW  24024.81259861  .00000141  00000-0  26941-4 0  9991,2 51896  53.2171 237.9061 0001349  92.3148 267.7999 15.08839171106315,6917.883,95.438,540.681,538.815,0.0
51896.0,STARLINK-3593,PAYLOAD,2024-01-24 21:05:31,15.08838997,0.0001415,53.2171,237.6069,98.4873,261.6279,2.12e-05,4.9e-07,0.0,0 STARLINK-3593,1 51896U 22022AW  24024.87883793  .00000049  00000-0  21200-4 0  9994,2 51896  53.2171 237.6069 0001415  98.4873 261.6279 15.08838997106326,6917.883,95.438,540.727,538.77,0.0
51896.0,STARLINK-3593,PAYLOAD,2024-01-25 20:56:18,15.08837005,0.0001334,53.2161,233.1403,90.6536,269.4609,5.1945e-05,5.39e-06,0.0,0 STARLINK-3593,1 51896U 22022AW  24025.87243939  .00000539  00000-0  51945-4 0  9990,2 51896  53.2161 233.1403 0001334  90.6536 269.4609 15.08837005106476,6917.89,95.438,540.677,538.832,0.0
51896.0,STARLINK-3593,PAYLOAD,2024-01-27 12:40:57,15.08840103,0.0001295,53.2155,225.7091,80.2865,279.8274,7.174e-05,8.54e-06,0.0,0 STARLINK-3593,1 51896U 22022AW  24027.52844001  .00000854  00000-0  71740-4 0  9996,2 51896  53.2155 225.7091 0001295  80.2865 279.8274 15.08840103106729,6917.88,95.438,540.641,538.849,0.0
51896.0,STARLINK-3593,PAYLOAD,2024-01-27 20:37:53,15.0883664,0.00013,53.2156,224.2215,82.66,277.454,3.1448e-05,2.13e-06,0.0,0 STARLINK-3593,1 51896U 22022AW  24027.85964316  .00000213  00000-0  31448-4 0  9994,2 51896  53.2156 224.2215 0001300  82.6600 277.4540 15.08836640106778,6917.891,95.438,540.655,538.856,0.0
51896.0,STARLINK-3593,PAYLOAD,2024-01-28 18:53:16,15.08840832,0.0001494,53.2161,220.0597,73.0967,287.0189,3.3955e-05,2.52e-06,0.0,0 STARLINK-3593,1 51896U 22022AW  24028.78700213  .00000252  00000-0  33955-4 0  9999,2 51896  53.2161 220.0597 0001494  73.0967 287.0189 15.08840832106915,6917.878,95.438,540.776,538.709,0.0
51896.0,STARLINK-3593,PAYLOAD,2024-01-28 22:04:03,15.08842936,0.0001433,53.2159,219.4643,74.8107,285.3043,4.7415e-05,4.67e-06,0.0,0 STARLINK-3593,1 51896U 22022AW  24028.91947991  .00000467  00000-0  47415-4 0  9994,2 51896  53.2159 219.4643 0001433  74.8107 285.3043 15.08842936106933,6917.871,95.437,540.728,538.745,0.0
51896.0,STARLINK-3593,PAYLOAD,2024-01-29 12:22:31,15.08841416,0.000131,53.2156,216.7872,82.3413,277.7728,0.00010191,1.334e-05,0.0,0 STARLINK-3593,1 51896U 22022AW  24029.51563809  .00001334  00000-0  10191-3 0  9997,2 51896  53.2156 216.7872 0001310  82.3413 277.7728 15.08841416107020,6917.876,95.437,540.647,538.835,0.0
51896.0,STARLINK-3593,PAYLOAD,2024-01-30 12:13:18,15.08844322,0.0001328,53.2158,212.3273,75.6212,284.4927,4.2072e-05,3.82e-06,0.0,0 STARLINK-3593,1 51896U 22022AW  24030.50923808  .00000382  00000-0  42072-4 0  9993,2 51896  53.2158 212.3273 0001328  75.6212 284.4927 15.08844322107171,6917.867,95.437,540.651,538.813,0.0
51896.0,STARLINK-3593,PAYLOAD,2024-01-30 18:34:50,15.08842487,0.0001233,53.2157,211.1364,84.5732,275.5401,2.8878e-05,1.72e-06,0.0,0 STARLINK-3593,1 51896U 22022AW  24030.77419837  .00000172  00000-0  28878-4 0  9999,2 51896  53.2157 211.1364 0001233  84.5732 275.5401 15.08842487107212,6917.873,95.437,540.591,538.885,0.0
